{
    "links": {
        "self": "http://www.neowsapp.com/rest/v1/neo/3555764?api_key=iIulBulltgU6a56xZRHN4H3l9WmuAYTsLGpBGhQ2"
    },
    "id": "3555764",
    "neo_reference_id": "3555764",
    "name": "(2011 BZ18)",
    "designation": "2011 BZ18",
    "nasa_jpl_url": "http://ssd.jpl.nasa.gov/sbdb.cgi?sstr=3555764",
    "absolute_magnitude_h": 21.8,
    "estimated_diameter": {
        "kilometers": {
            "estimated_diameter_min": 0.1160259082,
            "estimated_diameter_max": 0.2594418179
        },
        "meters": {
            "estimated_diameter_min": 116.0259082094,
            "estimated_diameter_max": 259.4418179074
        },
        "miles": {
            "estimated_diameter_min": 0.0720951346,
            "estimated_diameter_max": 0.1612096218
        },
        "feet": {
            "estimated_diameter_min": 380.6624406898,
            "estimated_diameter_max": 851.1870938635
        }
    },
    "is_potentially_hazardous_asteroid": false,
    "close_approach_data": [
        {
            "close_approach_date": "2011-02-12",
            "close_approach_date_full": "2011-Feb-12 01:32",
            "epoch_date_close_approach": 1297474320000,
            "relative_velocity": {
                "kilometers_per_second": "15.6648842406",
                "kilometers_per_hour": "56393.5832660232",
                "miles_per_hour": "35040.7795577131"
            },
            "miss_distance": {
                "astronomical": "0.113876379",
                "lunar": "44.297911431",
                "kilometers": "17035663.74171273",
                "miles": "10585470.594306474"
            },
            "orbiting_body": "Earth"
        }
    ],
    "orbital_data": {
        "orbit_id": "13",
        "orbit_determination_date": "2020-08-11 06:19:45",
        "first_observation_date": "2011-01-23",
        "last_observation_date": "2011-02-26",
        "data_arc_in_days": 34,
        "observations_used": 53,
        "orbit_uncertainty": "7",
        "minimum_orbit_intersection": ".114108",
        "jupiter_tisserand_invariant": "2.768",
        "epoch_osculation": "2459000.5",
        "eccentricity": ".7053878312383249",
        "semi_major_axis": "3.029515707089904",
        "inclination": "13.75745450491497",
        "ascending_node_longitude": "298.1723263886605",
        "orbital_period": "1926.008678261963",
        "perihelion_distance": ".8925321927633163",
        "perihelion_argument": "253.6927873991079",
        "aphelion_distance": "5.166499221416492",
        "perihelion_time": "2459489.103688475866",
        "mean_anomaly": "268.6726192687553",
        "mean_motion": ".1869150456398074",
        "equinox": "J2000",
        "orbit_class": {
            "orbit_class_type": "APO",
            "orbit_class_description": "Near-Earth asteroid orbits which cross the Earth’s orbit similar to that of 1862 Apollo",
            "orbit_class_range": "a (semi-major axis) > 1.0 AU; q (perihelion) < 1.017 AU"
        }
    },
    "is_sentry_object": false
}